[{"OBJECT_NAME":"STARLINK-34961","OBJECT_ID":"2025-179T","EPOCH":"2026-03-09T17:18:06.743232","MEAN_MOTION":15.05648156,"ECCENTRICITY":9.541e-5,"INCLINATION":97.6032,"RA_OF_ASC_NODE":113.0048,"ARG_OF_PERICENTER":116.9274,"MEAN_ANOMALY":243.205,"EPHEMERIS_TYPE":0,"CLASSIFICATION_TYPE":"U","NORAD_CAT_ID":65252,"ELEMENT_SET_NO":999,"REV_AT_EPOCH":3183,"BSTAR":0.00011293018,"MEAN_MOTION_DOT":1.569e-5,"MEAN_MOTION_DDOT":0},{"OBJECT_NAME":"DELTA 1 DEB","OBJECT_ID":"1972-058EG","EPOCH":"2026-03-09T15:29:57.375744","MEAN_MOTION":14.93143945,"ECCENTRICITY":0.0071537,"INCLINATION":98.4418,"RA_OF_ASC_NODE":299.7647,"ARG_OF_PERICENTER":185.1751,"MEAN_ANOMALY":174.8735,"EPHEMERIS_TYPE":0,"CLASSIFICATION_TYPE":"U","NORAD_CAT_ID":8314,"ELEMENT_SET_NO":999,"REV_AT_EPOCH":83297,"BSTAR":0.00043799,"MEAN_MOTION_DOT":4.734e-5,"MEAN_MOTION_DDOT":0}]
